{"fetched_at":"2026-07-20T18:29:23.173Z","source":"https://celestrak.org/NORAD/elements/gp.php?NAME=GLOBAL&FORMAT=JSON","constellation":"blacksky-gen3","records":[{"OBJECT_NAME":"GLOBAL-31","OBJECT_ID":"2025-033B","EPOCH":"2026-07-20T03:08:17.270880","CLASSIFICATION_TYPE":"U","MEAN_MOTION":15.38371816,"ECCENTRICITY":0.00124963,"INCLINATION":58.9975,"RA_OF_ASC_NODE":183.038,"ARG_OF_PERICENTER":59.2085,"MEAN_ANOMALY":301.0219,"EPHEMERIS_TYPE":0,"NORAD_CAT_ID":63027,"ELEMENT_SET_NO":999,"REV_AT_EPOCH":7939,"BSTAR":0.00016049235,"MEAN_MOTION_DOT":0.00005803,"MEAN_MOTION_DDOT":0},{"OBJECT_NAME":"GLOBAL-32","OBJECT_ID":"2025-118B","EPOCH":"2026-07-19T20:55:09.744384","CLASSIFICATION_TYPE":"U","MEAN_MOTION":15.39362024,"ECCENTRICITY":0.00168406,"INCLINATION":58.9943,"RA_OF_ASC_NODE":0.2593,"ARG_OF_PERICENTER":63.9703,"MEAN_ANOMALY":296.3105,"EPHEMERIS_TYPE":0,"NORAD_CAT_ID":64231,"ELEMENT_SET_NO":999,"REV_AT_EPOCH":6327,"BSTAR":0.000202378,"MEAN_MOTION_DOT":0.00007678,"MEAN_MOTION_DDOT":0},{"OBJECT_NAME":"GLOBAL-33","OBJECT_ID":"2025-267A","EPOCH":"2026-07-19T09:36:28.581120","CLASSIFICATION_TYPE":"U","MEAN_MOTION":15.37276578,"ECCENTRICITY":0.00081576,"INCLINATION":42.0181,"RA_OF_ASC_NODE":228.7856,"ARG_OF_PERICENTER":126.1201,"MEAN_ANOMALY":234.0395,"EPHEMERIS_TYPE":0,"NORAD_CAT_ID":66554,"ELEMENT_SET_NO":999,"REV_AT_EPOCH":3700,"BSTAR":0.00014662899,"MEAN_MOTION_DOT":0.00005215,"MEAN_MOTION_DDOT":0},{"OBJECT_NAME":"GLOBAL-34","OBJECT_ID":"2026-043A","EPOCH":"2026-07-19T22:18:35.000064","CLASSIFICATION_TYPE":"U","MEAN_MOTION":15.33164725,"ECCENTRICITY":0.00025105,"INCLINATION":42.022,"RA_OF_ASC_NODE":31.3766,"ARG_OF_PERICENTER":184.0302,"MEAN_ANOMALY":176.0516,"EPHEMERIS_TYPE":0,"NORAD_CAT_ID":68098,"ELEMENT_SET_NO":999,"REV_AT_EPOCH":2085,"BSTAR":0.0001990501,"MEAN_MOTION_DOT":0.00006267,"MEAN_MOTION_DDOT":0}]}
