GLOBAL-31               
1 63027U 25033B   26201.13075545  .00005803  00000+0  16049-3 0  9990
2 63027  58.9975 183.0380 0012496  59.2085 301.0219 15.38371816 79394
GLOBAL-32               
1 64231U 25118B   26200.87164056  .00007678  00000+0  20238-3 0  9995
2 64231  58.9943   0.2593 0016840  63.9703 296.3105 15.39362024 63271
GLOBAL-33               
1 66554U 25267A   26200.40033080  .00005215  00000+0  14663-3 0  9991
2 66554  42.0181 228.7856 0008157 126.1201 234.0395 15.37276578 37003
GLOBAL-34               
1 68098U 26043A   26200.92957176  .00006267  00000+0  19905-3 0  9999
2 68098  42.0220  31.3766 0002510 184.0302 176.0516 15.33164725 20853
